ONEWEB-0120             
1 47266U 20100J   24194.87381227  .00000084  00000+0  19683-3 0  9997
2 47266  87.8955 130.9283 0001888  81.9181 278.2162 13.12443251172349
ONEWEB-0121             
1 47267U 20100K   24194.86231925 -.00000272  00000+0 -79180-3 0  9995
2 47267  87.8948 130.9202 0002092  75.2060 284.9300 13.12443159172258
ONEWEB-0122             
1 47268U 20100L   24194.85731187 -.00000344  00000+0 -99254-3 0  9994
2 47268  87.8951 130.9259 0001940  74.9938 285.1406 13.12443038172162
ONEWEB-0123             
1 47269U 20100M   24194.85258592 -.00000438  00000+0 -12538-2 0  9992
2 47269  87.8955 130.9414 0001982  80.7484 279.3868 13.12442425172309
ONEWEB-0124             
1 47270U 20100N   24194.84123582 -.00000194  00000+0 -57383-3 0  9990
2 47270  87.8955 130.9405 0002239  74.2195 285.9180 13.12442028172189
ONEWEB-0125             
1 47271U 20100P   24194.89477830  .00000428  00000+0  11529-2 0  9993
2 47271  87.8956 130.8896 0002291  86.2315 273.9075 13.12443368172255
ONEWEB-0126             
1 47272U 20100Q   24194.84366489 -.00000244  00000+0 -71277-3 0  9991
2 47272  87.8950 130.9046 0001908  79.3582 280.7762 13.12441323172316
ONEWEB-0127             
1 47273U 20100R   24194.88179102  .00000400  00000+0  10763-2 0  9994
2 47273  87.8956 130.9262 0001942  78.9917 281.1430 13.12442752172345
